start=new Date('2023-04-09T00:00:00.000Z').valueOf();
sats=[{"TLE_LINE1":"1 50839U 22001AN  23098.54945286  .00004373  00000-0  29266-3 0  9990","MEAN_MOTION":"15.08842346","TIME_SYSTEM":"UTC","PERIAPSIS":"539.033","MEAN_MOTION_DDOT":"0.0000000000000","CENTER_NAME":"EARTH","REV_AT_EPOCH":"6930","COUNTRY_CODE":"US","ARG_OF_PERICENTER":"87.2310","DECAY_DATE":null,"MEAN_MOTION_DOT":"0.00004373","OBJECT_ID":"2022-001AN","OBJECT_TYPE":"PAYLOAD","REF_FRAME":"TEME","MEAN_ANOMALY":"272.8799","TLE_LINE2":"2 50839  53.2146 285.2058 0001020  87.2310 272.8799 15.08842346 69305","RA_OF_ASC_NODE":"285.2058","APOAPSIS":"540.444","BSTAR":"0.00029266000000","ELEMENT_SET_NO":"999","SEMIMAJOR_AXIS":"6917.873","INCLINATION":"53.2146","FILE":"3883527","CLASSIFICATION_TYPE":"U","MEAN_ELEMENT_THEORY":"SGP4","NORAD_CAT_ID":"50839","EPHEMERIS_TYPE":"0","PERIOD":"95.437","OBJECT_NAME":"STARLINK-3320","LAUNCH_DATE":"2022-01-06","SITE":"AFETR","EPOCH":"2023-04-08T13:11:12.727104","GP_ID":"229731487","ECCENTRICITY":"0.00010200","RCS_SIZE":"LARGE"},{"GP_ID":"229739987","ECCENTRICITY":"0.00010400","RCS_SIZE":"LARGE","EPOCH":"2023-04-08T21:02:50.506080","SITE":"AFETR","EPHEMERIS_TYPE":"0","PERIOD":"95.437","OBJECT_NAME":"STARLINK-3295","LAUNCH_DATE":"2022-01-06","MEAN_ELEMENT_THEORY":"SGP4","NORAD_CAT_ID":"50840","INCLINATION":"53.2150","SEMIMAJOR_AXIS":"6917.860","FILE":"3883759","CLASSIFICATION_TYPE":"U","RA_OF_ASC_NODE":"283.7405","APOAPSIS":"540.445","ELEMENT_SET_NO":"999","BSTAR":"0.00052813000000","MEAN_ANOMALY":"270.9205","TLE_LINE2":"2 50840  53.2150 283.7405 0001040  89.1906 270.9205 15.08846507 70648","REF_FRAME":"TEME","OBJECT_ID":"2022-001AP","OBJECT_TYPE":"PAYLOAD","DECAY_DATE":null,"MEAN_MOTION_DOT":"0.00008129","CENTER_NAME":"EARTH","REV_AT_EPOCH":"7064","COUNTRY_CODE":"US","ARG_OF_PERICENTER":"89.1906","MEAN_MOTION_DDOT":"0.0000000000000","PERIAPSIS":"539.006","MEAN_MOTION":"15.08846507","TIME_SYSTEM":"UTC","TLE_LINE1":"1 50840U 22001AP  23098.87697345  .00008129  00000-0  52813-3 0  9995"},{"SITE":"AFETR","LAUNCH_DATE":"2022-01-06","OBJECT_NAME":"STARLINK-3300","PERIOD":"95.438","EPHEMERIS_TYPE":"0","RCS_SIZE":"LARGE","ECCENTRICITY":"0.00009370","GP_ID":"229739632","EPOCH":"2023-04-08T21:18:44.432064","BSTAR":"0.00028717000000","ELEMENT_SET_NO":"999","APOAPSIS":"540.393","RA_OF_ASC_NODE":"283.6876","TLE_LINE2":"2 50841  53.2123 283.6876 0000937  77.8437 282.2660 15.08840315 70661","MEAN_ANOMALY":"282.2660","MEAN_ELEMENT_THEORY":"SGP4","NORAD_CAT_ID":"50841","CLASSIFICATION_TYPE":"U","FILE":"3883759","SEMIMAJOR_AXIS":"6917.879","INCLINATION":"53.2123","MEAN_MOTION_DOT":"0.00004286","DECAY_DATE":null,"ARG_OF_PERICENTER":"77.8437","REV_AT_EPOCH":"7066","COUNTRY_CODE":"US","CENTER_NAME":"EARTH","REF_FRAME":"TEME","OBJECT_TYPE":"PAYLOAD","OBJECT_ID":"2022-001AQ","TIME_SYSTEM":"UTC","MEAN_MOTION":"15.08840315","TLE_LINE1":"1 50841U 22001AQ  23098.88801426  .00004286  00000-0  28717-3 0  9990","MEAN_MOTION_DDOT":"0.0000000000000","PERIAPSIS":"539.096"},{"NORAD_CAT_ID":"50842","MEAN_ELEMENT_THEORY":"SGP4","INCLINATION":"53.2161","SEMIMAJOR_AXIS":"6917.875","FILE":"3883527","CLASSIFICATION_TYPE":"U","RA_OF_ASC_NODE":"285.5394","BSTAR":"0.00009410900000","ELEMENT_SET_NO":"999","APOAPSIS":"540.609","MEAN_ANOMALY":"271.5415","TLE_LINE2":"2 50842  53.2161 285.5394 0001256  88.5721 271.5415 15.08841737 69295","RCS_SIZE":"LARGE","ECCENTRICITY":"0.00012560","GP_ID":"229730736","EPOCH":"2023-04-08T11:25:13.743264","SITE":"AFETR","PERIOD":"95.437","EPHEMERIS_TYPE":"0","LAUNCH_DATE":"2022-01-06","OBJECT_NAME":"STARLINK-3302","MEAN_MOTION_DDOT":"0.0000000000000","PERIAPSIS":"538.871","TIME_SYSTEM":"UTC","MEAN_MOTION":"15.08841737","TLE_LINE1":"1 50842U 22001AR  23098.47585351  .00001210  00000-0  94109-4 0  9995","REF_FRAME":"TEME","OBJECT_ID":"2022-001AR","OBJECT_TYPE":"PAYLOAD","DECAY_DATE":null,"MEAN_MOTION_DOT":"0.00001210","REV_AT_EPOCH":"6929","COUNTRY_CODE":"US","CENTER_NAME":"EARTH","ARG_OF_PERICENTER":"88.5721"},{"TLE_LINE2":"2 50843  53.2196 285.1413 0001416  90.1861 269.9294 15.08834839 69318","MEAN_ANOMALY":"269.9294","APOAPSIS":"540.741","BSTAR":"0.00001916800000","ELEMENT_SET_NO":"999","RA_OF_ASC_NODE":"285.1413","FILE":"3883527","CLASSIFICATION_TYPE":"U","SEMIMAJOR_AXIS":"6917.896","INCLINATION":"53.2196","MEAN_ELEMENT_THEORY":"SGP4","NORAD_CAT_ID":"50843","LAUNCH_DATE":"2022-01-06","OBJECT_NAME":"STARLINK-3325","EPHEMERIS_TYPE":"0","PERIOD":"95.438","SITE":"AFETR","EPOCH":"2023-04-08T13:32:25.090656","GP_ID":"229730988","ECCENTRICITY":"0.00014160","RCS_SIZE":"LARGE","TLE_LINE1":"1 50843U 22001AS  23098.56417929  .00000017  00000-0  19168-4 0  9997","MEAN_MOTION":"15.08834839","TIME_SYSTEM":"UTC","PERIAPSIS":"538.782","MEAN_MOTION_DDOT":"0.0000000000000","ARG_OF_PERICENTER":"90.1861","CENTER_NAME":"EARTH","COUNTRY_CODE":"US","REV_AT_EPOCH":"6931","MEAN_MOTION_DOT":"0.00000017","DECAY_DATE":null,"OBJECT_TYPE":"PAYLOAD","OBJECT_ID":"2022-001AS","REF_FRAME":"TEME"},{"MEAN_MOTION":"15.08836388","TIME_SYSTEM":"UTC","TLE_LINE1":"1 50844U 22001AT  23098.53104952 -.00005347  00000-0 -31814-3 0  9998","MEAN_MOTION_DDOT":"0.0000000000000","PERIAPSIS":"538.707","MEAN_MOTION_DOT":"-0.00005347","DECAY_DATE":null,"ARG_OF_PERICENTER":"89.9215","CENTER_NAME":"EARTH","COUNTRY_CODE":"US","REV_AT_EPOCH":"6931","REF_FRAME":"TEME","OBJECT_ID":"2022-001AT","OBJECT_TYPE":"PAYLOAD","APOAPSIS":"540.806","BSTAR":"-0.00031814000000","ELEMENT_SET_NO":"999","RA_OF_ASC_NODE":"285.2930","TLE_LINE2":"2 50844  53.2131 285.2930 0001517  89.9215 270.1951 15.08836388 69319","MEAN_ANOMALY":"270.1951","NORAD_CAT_ID":"50844","MEAN_ELEMENT_THEORY":"SGP4","CLASSIFICATION_TYPE":"U","FILE":"3883527","SEMIMAJOR_AXIS":"6917.891","INCLINATION":"53.2131","SITE":"AFETR","OBJECT_NAME":"STARLINK-3326","LAUNCH_DATE":"2022-01-06","EPHEMERIS_TYPE":"0","PERIOD":"95.438","GP_ID":"229731733","ECCENTRICITY":"0.00015170","RCS_SIZE":"LARGE","EPOCH":"2023-04-08T12:44:42.678528"},{"MEAN_MOTION_DDOT":"0.0000000000000","PERIAPSIS":"538.945","TIME_SYSTEM":"UTC","MEAN_MOTION":"15.08840649","TLE_LINE1":"1 50845U 22001AU  23098.77393456  .00000777  00000-0  66866-4 0  9990","REF_FRAME":"TEME","OBJECT_ID":"2022-001AU","OBJECT_TYPE":"PAYLOAD","DECAY_DATE":null,"MEAN_MOTION_DOT":"0.00000777","REV_AT_EPOCH":"7058","COUNTRY_CODE":"US","CENTER_NAME":"EARTH","ARG_OF_PERICENTER":"84.0443","MEAN_ELEMENT_THEORY":"SGP4","NORAD_CAT_ID":"50845","INCLINATION":"53.2152","SEMIMAJOR_AXIS":"6917.878","FILE":"3883760","CLASSIFICATION_TYPE":"U","RA_OF_ASC_NODE":"284.2004","ELEMENT_SET_NO":"999","BSTAR":"0.00006686600000","APOAPSIS":"540.542","MEAN_ANOMALY":"276.0680","TLE_LINE2":"2 50845  53.2152 284.2004 0001154  84.0443 276.0680 15.08840649 70580","RCS_SIZE":"LARGE","GP_ID":"229739635","ECCENTRICITY":"0.00011540","EPOCH":"2023-04-08T18:34:27.945984","SITE":"AFETR","PERIOD":"95.438","EPHEMERIS_TYPE":"0","LAUNCH_DATE":"2022-01-06","OBJECT_NAME":"STARLINK-3230"},{"ECCENTRICITY":"0.00011270","GP_ID":"229740003","RCS_SIZE":"LARGE","EPOCH":"2023-04-08T19:02:20.521248","SITE":"AFETR","EPHEMERIS_TYPE":"0","PERIOD":"95.437","OBJECT_NAME":"STARLINK-3308","LAUNCH_DATE":"2022-01-06","NORAD_CAT_ID":"50846","MEAN_ELEMENT_THEORY":"SGP4","SEMIMAJOR_AXIS":"6917.872","INCLINATION":"53.2148","CLASSIFICATION_TYPE":"U","FILE":"3883760","RA_OF_ASC_NODE":"284.1217","APOAPSIS":"540.516","BSTAR":"0.00032834000000","ELEMENT_SET_NO":"999","MEAN_ANOMALY":"272.5763","TLE_LINE2":"2 50846  53.2148 284.1217 0001127  87.5358 272.5763 15.08842821 70637","REF_FRAME":"TEME","OBJECT_ID":"2022-001AV","OBJECT_TYPE":"PAYLOAD","DECAY_DATE":null,"MEAN_MOTION_DOT":"0.00004942","CENTER_NAME":"EARTH","COUNTRY_CODE":"US","REV_AT_EPOCH":"7063","ARG_OF_PERICENTER":"87.5358","MEAN_MOTION_DDOT":"0.0000000000000","PERIAPSIS":"538.957","MEAN_MOTION":"15.08842821","TIME_SYSTEM":"UTC","TLE_LINE1":"1 50846U 22001AV  23098.79329307  .00004942  00000-0  32834-3 0  9992"},{"OBJECT_ID":"2022-001AW","OBJECT_TYPE":"PAYLOAD","REF_FRAME":"TEME","ARG_OF_PERICENTER":"96.8164","REV_AT_EPOCH":"6931","COUNTRY_CODE":"US","CENTER_NAME":"EARTH","MEAN_MOTION_DOT":"0.00002314","DECAY_DATE":null,"PERIAPSIS":"539.231","MEAN_MOTION_DDOT":"0.0000000000000","TLE_LINE1":"1 50847U 22001AW  23098.55410663  .00002314  00000-0  16341-3 0  9999","TIME_SYSTEM":"UTC","MEAN_MOTION":"15.08837505","EPOCH":"2023-04-08T13:17:54.812832","RCS_SIZE":"LARGE","GP_ID":"229731488","ECCENTRICITY":"0.00007550","LAUNCH_DATE":"2022-01-06","OBJECT_NAME":"STARLINK-3319","PERIOD":"95.438","EPHEMERIS_TYPE":"0","SITE":"AFETR","FILE":"3883527","CLASSIFICATION_TYPE":"U","INCLINATION":"53.2155","SEMIMAJOR_AXIS":"6917.888","MEAN_ELEMENT_THEORY":"SGP4","NORAD_CAT_ID":"50847","TLE_LINE2":"2 50847  53.2155 285.2004 0000755  96.8164 263.2914 15.08837505 69317","MEAN_ANOMALY":"263.2914","ELEMENT_SET_NO":"999","BSTAR":"0.00016341000000","APOAPSIS":"540.275","RA_OF_ASC_NODE":"285.2004"},{"SITE":"AFETR","LAUNCH_DATE":"2022-01-06","OBJECT_NAME":"STARLINK-3315","EPHEMERIS_TYPE":"0","PERIOD":"95.438","GP_ID":"229731235","ECCENTRICITY":"0.00014560","RCS_SIZE":"LARGE","EPOCH":"2023-04-08T06:12:34.894080","APOAPSIS":"540.766","BSTAR":"-0.00003342000000","ELEMENT_SET_NO":"999","RA_OF_ASC_NODE":"286.5159","TLE_LINE2":"2 50848  53.2149 286.5159 0001456  79.2080 280.9076 15.08835564 69270","MEAN_ANOMALY":"280.9076","NORAD_CAT_ID":"50848","MEAN_ELEMENT_THEORY":"SGP4","FILE":"3883527","CLASSIFICATION_TYPE":"U","INCLINATION":"53.2149","SEMIMAJOR_AXIS":"6917.894","MEAN_MOTION_DOT":"-0.00000820","DECAY_DATE":null,"ARG_OF_PERICENTER":"79.2080","CENTER_NAME":"EARTH","COUNTRY_CODE":"US","REV_AT_EPOCH":"6927","REF_FRAME":"TEME","OBJECT_ID":"2022-001AX","OBJECT_TYPE":"PAYLOAD","MEAN_MOTION":"15.08835564","TIME_SYSTEM":"UTC","TLE_LINE1":"1 50848U 22001AX  23098.25873720 -.00000820  00000-0 -33420-4 0  9994","MEAN_MOTION_DDOT":"0.0000000000000","PERIAPSIS":"538.752"}];
